{"type": "FeatureCollection", "features": [ {"type": "Feature", "properties": {"norad_id": 34058, "name": "COSMOS 2251 DEB", "group": "cosmos-2251-debris", "lat": 34.57818002931367, "lon": -13.680209190828888, "alt_km": 799.8748141130691, "timestamp": "2025-12-12T22:42:12.939274+00:00", "meta": {"OBJECT_NAME": "COSMOS 2251 DEB", "OBJECT_ID": "1993-036JV", "EPOCH": "2025-12-11T23:37:22.196352", "MEAN_MOTION": 13.56074074, "ECCENTRICITY": 0.0377984, "INCLINATION": 73.9314, "RA_OF_ASC_NODE": 179.3371, "ARG_OF_PERICENTER": 174.7181, "MEAN_ANOMALY": 317.9142, "EPHEMERIS_TYPE": 0, "CLASSIFICATION_TYPE": "U", "NORAD_CAT_ID": 34058, "ELEMENT_SET_NO": 999, "REV_AT_EPOCH": 83132, "BSTAR": 0.00094566, "MEAN_MOTION_DOT": 1.029e-05, "MEAN_MOTION_DDOT": 0}, "tle": {"line1": "1 34058U 93036JV  25345.98428468  .00001029  00000+0  94566-3 0  9993", "line2": "2 34058  73.9314 179.3371 0377984 174.7181 317.9142 13.56074074831328"}}, "geometry": {"type": "Point", "coordinates": [-13.680209190828888, 34.57818002931367]}}, {"type": "Feature", "properties": {"norad_id": 34059, "name": "COSMOS 2251 DEB", "group": "cosmos-2251-debris", "lat": 70.28189241193355, "lon": -121.11686426488829, "alt_km": 722.0519365440587, "timestamp": "2025-12-12T22:42:12.939284+00:00", "meta": {"OBJECT_NAME": "COSMOS 2251 DEB", "OBJECT_ID": "1993-036JW", "EPOCH": "2025-12-12T06:22:01.178688", "MEAN_MOTION": 14.5294321, "ECCENTRICITY": 0.0018638, "INCLINATION": 74.0378, "RA_OF_ASC_NODE": 187.1716, "ARG_OF_PERICENTER": 264.492, "MEAN_ANOMALY": 214.8188, "EPHEMERIS_TYPE": 0, "CLASSIFICATION_TYPE": "U", "NORAD_CAT_ID": 34059, "ELEMENT_SET_NO": 999, "REV_AT_EPOCH": 88452, "BSTAR": 0.0011604218, "MEAN_MOTION_DOT": 4.768e-05, "MEAN_MOTION_DDOT": 0}, "tle": {"line1": "1 34059U 93036JW  25346.26529142  .00004768  00000+0  11604-2 0  9991", "line2": "2 34059  74.0378 187.1716 0018638 264.4920 214.8188 14.52943210884526"}}, "geometry": {"type": "Point", "coordinates": [-121.11686426488829, 70.28189241193355]}}, {"type": "Feature", "properties": {"norad_id": 34061, "name": "COSMOS 2251 DEB", "group": "cosmos-2251-debris", "lat": 52.94232056807361, "lon": -74.72033225451834, "alt_km": 748.525075337715, "timestamp": "2025-12-12T22:42:12.939294+00:00", "meta": {"OBJECT_NAME": "COSMOS 2251 DEB", "OBJECT_ID": "1993-036JY", "EPOCH": "2025-12-12T04:38:39.512832", "MEAN_MOTION": 14.40355713, "ECCENTRICITY": 0.00205152, "INCLINATION": 74.0393, "RA_OF_ASC_NODE": 264.3988, "ARG_OF_PERICENTER": 341.3535, "MEAN_ANOMALY": 134.386, "EPHEMERIS_TYPE": 0, "CLASSIFICATION_TYPE": "U", "NORAD_CAT_ID": 34061, "ELEMENT_SET_NO": 999, "REV_AT_EPOCH": 88172, "BSTAR": 0.00053866635, "MEAN_MOTION_DOT": 1.687e-05, "MEAN_MOTION_DDOT": 0}, "tle": {"line1": "1 34061U 93036JY  25346.19351288  .00001687  00000+0  53867-3 0  9995", "line2": "2 34061  74.0393 264.3988 0020515 341.3535 134.3860 14.40355713881723"}}, "geometry": {"type": "Point", "coordinates": [-74.72033225451834, 52.94232056807361]}}, {"type": "Feature", "properties": {"norad_id": 34062, "name": "COSMOS 2251 DEB", "group": "cosmos-2251-debris", "lat": -23.575620195860804, "lon": -35.1889826961702, "alt_km": 587.419565685941, "timestamp": "2025-12-12T22:42:12.939304+00:00", "meta": {"OBJECT_NAME": "COSMOS 2251 DEB", "OBJECT_ID": "1993-036JZ", "EPOCH": "2025-12-12T04:43:34.663008", "MEAN_MOTION": 14.78632926, "ECCENTRICITY": 0.00747397, "INCLINATION": 74.0272, "RA_OF_ASC_NODE": 139.1034, "ARG_OF_PERICENTER": 218.3072, "MEAN_ANOMALY": 320.674, "EPHEMERIS_TYPE": 0, "CLASSIFICATION_TYPE": "U", "NORAD_CAT_ID": 34062, "ELEMENT_SET_NO": 999, "REV_AT_EPOCH": 88587, "BSTAR": 0.0041227326, "MEAN_MOTION_DOT": 0.00031758, "MEAN_MOTION_DDOT": 0}, "tle": {"line1": "1 34062U 93036JZ  25346.19692897  .00031758  00000+0  41227-2 0  9998", "line2": "2 34062  74.0272 139.1034 0074739 218.3072 320.6740 14.78632926885879"}}, "geometry": {"type": "Point", "coordinates": [-35.1889826961702, -23.575620195860804]}}, {"type": "Feature", "properties": {"norad_id": 34064, "name": "COSMOS 2251 DEB", "group": "cosmos-2251-debris", "lat": 29.788886188154905, "lon": -80.08097358197844, "alt_km": 739.7295780320928, "timestamp": "2025-12-12T22:42:12.939313+00:00", "meta": {"OBJECT_NAME": "COSMOS 2251 DEB", "OBJECT_ID": "1993-036KB", "EPOCH": "2025-12-12T06:38:48.096384", "MEAN_MOTION": 14.42336008, "ECCENTRICITY": 0.0022106, "INCLINATION": 74.0328, "RA_OF_ASC_NODE": 271.7264, "ARG_OF_PERICENTER": 338.1746, "MEAN_ANOMALY": 180.3124, "EPHEMERIS_TYPE": 0, "CLASSIFICATION_TYPE": "U", "NORAD_CAT_ID": 34064, "ELEMENT_SET_NO": 999, "REV_AT_EPOCH": 88135, "BSTAR": 0.00088476155, "MEAN_MOTION_DOT": 2.906e-05, "MEAN_MOTION_DDOT": 0}, "tle": {"line1": "1 34064U 93036KB  25346.27694556  .00002906  00000+0  88476-3 0  9994", "line2": "2 34064  74.0328 271.7264 0022106 338.1746 180.3124 14.42336008881350"}}, "geometry": {"type": "Point", "coordinates": [-80.08097358197844, 29.788886188154905]}}, {"type": "Feature", "properties": {"norad_id": 34065, "name": "COSMOS 2251 DEB", "group": "cosmos-2251-debris", "lat": 39.22840798060359, "lon": -88.74367185409767, "alt_km": 753.4420669347155, "timestamp": "2025-12-12T22:42:12.939323+00:00", "meta": {"OBJECT_NAME": "COSMOS 2251 DEB", "OBJECT_ID": "1993-036KC", "EPOCH": "2025-12-12T04:55:08.374656", "MEAN_MOTION": 14.38061937, "ECCENTRICITY": 0.00163533, "INCLINATION": 74.0359, "RA_OF_ASC_NODE": 259.1058, "ARG_OF_PERICENTER": 356.6863, "MEAN_ANOMALY": 169.6338, "EPHEMERIS_TYPE": 0, "CLASSIFICATION_TYPE": "U", "NORAD_CAT_ID": 34065, "ELEMENT_SET_NO": 999, "REV_AT_EPOCH": 88197, "BSTAR": 0.00027140991, "MEAN_MOTION_DOT": 7.97e-06, "MEAN_MOTION_DDOT": 0}, "tle": {"line1": "1 34065U 93036KC  25346.20495804  .00000797  00000+0  27141-3 0  9991", "line2": "2 34065  74.0359 259.1058 0016353 356.6863 169.6338 14.38061937881974"}}, "geometry": {"type": "Point", "coordinates": [-88.74367185409767, 39.22840798060359]}}, {"type": "Feature", "properties": {"norad_id": 34070, "name": "COSMOS 2251 DEB", "group": "cosmos-2251-debris", "lat": -43.672994528344994, "lon": 99.96300295271348, "alt_km": 643.2696567293688, "timestamp": "2025-12-12T22:42:12.939333+00:00", "meta": {"OBJECT_NAME": "COSMOS 2251 DEB", "OBJECT_ID": "1993-036KH", "EPOCH": "2025-12-11T08:00:44.093088", "MEAN_MOTION": 14.76951736, "ECCENTRICITY": 0.00187517, "INCLINATION": 74.0005, "RA_OF_ASC_NODE": 119.0276, "ARG_OF_PERICENTER": 234.7279, "MEAN_ANOMALY": 150.6467, "EPHEMERIS_TYPE": 0, "CLASSIFICATION_TYPE": "U", "NORAD_CAT_ID": 34070, "ELEMENT_SET_NO": 999, "REV_AT_EPOCH": 88590, "BSTAR": 0.0054241903, "MEAN_MOTION_DOT": 0.00038489, "MEAN_MOTION_DDOT": 0}, "tle": {"line1": "1 34070U 93036KH  25345.33384367  .00038489  00000+0  54242-2 0  9991", "line2": "2 34070  74.0005 119.0276 0018751 234.7279 150.6467 14.76951736885902"}}, "geometry": {"type": "Point", "coordinates": [99.96300295271348, -43.672994528344994]}}, {"type": "Feature", "properties": {"norad_id": 34114, "name": "COSMOS 2251 DEB", "group": "cosmos-2251-debris", "lat": 31.217454049818773, "lon": -146.53398664189018, "alt_km": 713.6080186490526, "timestamp": "2025-12-12T22:42:12.939343+00:00", "meta": {"OBJECT_NAME": "COSMOS 2251 DEB", "OBJECT_ID": "1993-036KK", "EPOCH": "2025-12-12T05:50:56.200992", "MEAN_MOTION": 14.56372553, "ECCENTRICITY": 0.00474315, "INCLINATION": 74.059, "RA_OF_ASC_NODE": 44.7709, "ARG_OF_PERICENTER": 39.7512, "MEAN_ANOMALY": 26.5168, "EPHEMERIS_TYPE": 0, "CLASSIFICATION_TYPE": "U", "NORAD_CAT_ID": 34114, "ELEMENT_SET_NO": 999, "REV_AT_EPOCH": 87794, "BSTAR": 0.0025875181, "MEAN_MOTION_DOT": 0.00011645, "MEAN_MOTION_DDOT": 0}, "tle": {"line1": "1 34114U 93036KK  25346.24370603  .00011645  00000+0  25875-2 0  9994", "line2": "2 34114  74.0590  44.7709 0047431  39.7512  26.5168 14.56372553877941"}}, "geometry": {"type": "Point", "coordinates": [-146.53398664189018, 31.217454049818773]}}, {"type": "Feature", "properties": {"norad_id": 34115, "name": "COSMOS 2251 DEB", "group": "cosmos-2251-debris", "lat": -72.7163130336091, "lon": 174.3431314281087, "alt_km": 654.8913360225743, "timestamp": "2025-12-12T22:42:12.939353+00:00", "meta": {"OBJECT_NAME": "COSMOS 2251 DEB", "OBJECT_ID": "1993-036KL", "EPOCH": "2025-12-12T03:36:22.211712", "MEAN_MOTION": 14.79475169, "ECCENTRICITY": 0.00285045, "INCLINATION": 74.006, "RA_OF_ASC_NODE": 243.104, "ARG_OF_PERICENTER": 66.9041, "MEAN_ANOMALY": 293.5135, "EPHEMERIS_TYPE": 0, "CLASSIFICATION_TYPE": "U", "NORAD_CAT_ID": 34115, "ELEMENT_SET_NO": 999, "REV_AT_EPOCH": 89403, "BSTAR": 0.0015384357, "MEAN_MOTION_DOT": 0.0001156, "MEAN_MOTION_DDOT": 0}, "tle": {"line1": "1 34115U 93036KL  25346.15025708  .00011560  00000+0  15384-2 0  9998", "line2": "2 34115  74.0060 243.1040 0028504  66.9041 293.5135 14.79475169894037"}}, "geometry": {"type": "Point", "coordinates": [174.3431314281087, -72.7163130336091]}}, {"type": "Feature", "properties": {"norad_id": 34116, "name": "COSMOS 2251 DEB", "group": "cosmos-2251-debris", "lat": -38.620358024900206, "lon": 15.603184075438595, "alt_km": 715.3251872711489, "timestamp": "2025-12-12T22:42:12.939363+00:00", "meta": {"OBJECT_NAME": "COSMOS 2251 DEB", "OBJECT_ID": "1993-036KM", "EPOCH": "2025-12-12T07:38:41.596800", "MEAN_MOTION": 14.52970966, "ECCENTRICITY": 0.00119981, "INCLINATION": 74.0404, "RA_OF_ASC_NODE": 183.5708, "ARG_OF_PERICENTER": 259.7149, "MEAN_ANOMALY": 280.1129, "EPHEMERIS_TYPE": 0, "CLASSIFICATION_TYPE": "U", "NORAD_CAT_ID": 34116, "ELEMENT_SET_NO": 999, "REV_AT_EPOCH": 88480, "BSTAR": 0.0011047387, "MEAN_MOTION_DOT": 4.535e-05, "MEAN_MOTION_DDOT": 0}, "tle": {"line1": "1 34116U 93036KM  25346.31853700  .00004535  00000+0  11047-2 0  9994", "line2": "2 34116  74.0404 183.5708 0011998 259.7149 280.1129 14.52970966884803"}}, "geometry": {"type": "Point", "coordinates": [15.603184075438595, -38.620358024900206]}}]}